2025-012B               
1 62726U 25012B   26068.71071446  .00005916  00000+0  27599-3 0  9990
2 62726  97.4305 143.2195 0007682 262.0484  97.9879 15.20202755 63138
PEXT (BARD)             
1 64874U 25154F   26068.70989017  .00004311  00000+0  20462-3 0  9994
2 64874  97.4066 135.5860 0001238 270.8362  89.2731 15.19773826 34739
