[{"OBJECT_NAME":"OBJECT B","OBJECT_ID":"2025-012B","EPOCH":"2026-03-09T17:03:25.729344","MEAN_MOTION":15.20202755,"ECCENTRICITY":0.00076819,"INCLINATION":97.4305,"RA_OF_ASC_NODE":143.2195,"ARG_OF_PERICENTER":262.0484,"MEAN_ANOMALY":97.9879,"EPHEMERIS_TYPE":0,"CLASSIFICATION_TYPE":"U","NORAD_CAT_ID":62726,"ELEMENT_SET_NO":999,"REV_AT_EPOCH":6313,"BSTAR":0.00027599398,"MEAN_MOTION_DOT":5.916e-5,"MEAN_MOTION_DDOT":0},{"OBJECT_NAME":"PEXT (BARD)","OBJECT_ID":"2025-154F","EPOCH":"2026-03-09T17:02:14.512416","MEAN_MOTION":15.19773826,"ECCENTRICITY":0.0001238,"INCLINATION":97.4066,"RA_OF_ASC_NODE":135.586,"ARG_OF_PERICENTER":270.8362,"MEAN_ANOMALY":89.2731,"EPHEMERIS_TYPE":0,"CLASSIFICATION_TYPE":"U","NORAD_CAT_ID":64874,"ELEMENT_SET_NO":999,"REV_AT_EPOCH":3473,"BSTAR":0.00020462446,"MEAN_MOTION_DOT":4.311e-5,"MEAN_MOTION_DDOT":0}]
